[{"OBJECT_NAME":"STARLINK-34176","OBJECT_ID":"2025-110J","EPOCH":"2026-03-09T06:17:54.905856","MEAN_MOTION":15.30200848,"ECCENTRICITY":0.00010186,"INCLINATION":53.1611,"RA_OF_ASC_NODE":28.9913,"ARG_OF_PERICENTER":111.9699,"MEAN_ANOMALY":248.141,"EPHEMERIS_TYPE":0,"CLASSIFICATION_TYPE":"U","NORAD_CAT_ID":64104,"ELEMENT_SET_NO":999,"REV_AT_EPOCH":4581,"BSTAR":0.00054566049,"MEAN_MOTION_DOT":0.00015837,"MEAN_MOTION_DDOT":0},{"OBJECT_NAME":"CZ-2C R\/B","OBJECT_ID":"2014-014B","EPOCH":"2026-03-09T23:01:00.862464","MEAN_MOTION":15.34922702,"ECCENTRICITY":0.00700559,"INCLINATION":98.3314,"RA_OF_ASC_NODE":172.135,"ARG_OF_PERICENTER":276.2597,"MEAN_ANOMALY":83.0667,"EPHEMERIS_TYPE":0,"CLASSIFICATION_TYPE":"U","NORAD_CAT_ID":39625,"ELEMENT_SET_NO":999,"REV_AT_EPOCH":65564,"BSTAR":0.0004934259,"MEAN_MOTION_DOT":0.00018031,"MEAN_MOTION_DDOT":0}]
